TIANMU-1 15             
1 58700U 24004A   26060.52270617  .00008044  00000+0  31836-3 0  9993
2 58700  97.4661 246.7728 0007355  18.3585 341.7917 15.25687884119356
TIANMU-1 16             
1 58701U 24004B   26060.50636866  .00008320  00000+0  32896-3 0  9998
2 58701  97.4601 246.0855 0005856  23.9532 336.1978 15.25721471119359
TIANMU-1 17             
1 58702U 24004C   26060.55447686  .00008093  00000+0  31974-3 0  9997
2 58702  97.4634 246.5834 0005086  26.8929 333.2571 15.25758564119355
TIANMU-1 18             
1 58703U 24004D   26060.53937443  .00008110  00000+0  32089-3 0  9999
2 58703  97.4651 246.7784 0004496  28.0308 332.1171 15.25709690119350
INSAT-3DS               
1 58990U 24033A   26060.39211265 -.00000174  00000+0  00000+0 0  9997
2 58990   0.0629 266.1361 0002295  85.9860  30.2937  1.00270381 45981
METEOR-M2 4             
1 59051U 24039A   26060.48938500  .00000030  00000+0  33223-4 0  9998
2 59051  98.6890  21.2134 0007997 116.9921 243.2074 14.22415614103956
GOES 19                 
1 60133U 24119A   26060.43223949 -.00000267  00000+0  00000+0 0  9994
2 60133   0.0254 282.0436 0000816  88.2243 229.3523  1.00271551  5882
FENGYUN 3H              
1 65815U 25219A   26060.43974487  .00000092  00000+0  63628-4 0  9993
2 65815  98.6674   3.3589 0001449  67.1367 292.9963 14.19929994 22093
