OBJECT_NAME,OBJECT_ID,EPOCH,MEAN_MOTION,ECCENTRICITY,INCLINATION,RA_OF_ASC_NODE,ARG_OF_PERICENTER,MEAN_ANOMALY,EPHEMERIS_TYPE,CLASSIFICATION_TYPE,NORAD_CAT_ID,ELEMENT_SET_NO,REV_AT_EPOCH,BSTAR,MEAN_MOTION_DOT,MEAN_MOTION_DDOT
TIANMU-1 15,2024-004A,2026-03-01T12:32:41.813088,15.25687884,.0007355,97.4661,246.7728,18.3585,341.7917,0,U,58700,999,11935,.31836E-3,.8044E-4,0
TIANMU-1 16,2024-004B,2026-03-01T12:09:10.252224,15.25721471,.0005856,97.4601,246.0855,23.9532,336.1978,0,U,58701,999,11935,.32896E-3,.832E-4,0
TIANMU-1 17,2024-004C,2026-03-01T13:18:26.800704,15.25758564,.0005086,97.4634,246.5834,26.8929,333.2571,0,U,58702,999,11935,.31974E-3,.8093E-4,0
TIANMU-1 18,2024-004D,2026-03-01T12:56:41.950752,15.25709690,.0004496,97.4651,246.7784,28.0308,332.1171,0,U,58703,999,11935,.32089E-3,.811E-4,0
INSAT-3DS,2024-033A,2026-03-01T09:24:38.532960,1.00270381,.0002295,0.0629,266.1361,85.9860,30.2937,0,U,58990,999,4598,0,-.174E-5,0
METEOR-M2 4,2024-039A,2026-03-01T11:44:42.864000,14.22415614,.0007997,98.6890,21.2134,116.9921,243.2074,0,U,59051,999,10395,.33223E-4,.3E-6,0
GOES 19,2024-119A,2026-03-01T10:22:25.491936,1.00271551,.0000816,0.0254,282.0436,88.2243,229.3523,0,U,60133,999,588,0,-.267E-5,0
FENGYUN 3H,2025-219A,2026-03-01T10:33:13.956768,14.19929994,.0001449,98.6674,3.3589,67.1367,292.9963,0,U,65815,999,2209,.63628E-4,.92E-6,0